{"fetched_at":"2026-07-13T18:16:36.647Z","source":"https://celestrak.org/NORAD/elements/gp.php?GROUP=spire&FORMAT=JSON","constellation":"spire","records":[{"OBJECT_NAME":"LEMUR-2-HUBBLE-4","OBJECT_ID":"2025-135AP","EPOCH":"2026-07-13T06:22:16.300416","CLASSIFICATION_TYPE":"U","MEAN_MOTION":14.93682329,"ECCENTRICITY":0.00025181,"INCLINATION":97.7717,"RA_OF_ASC_NODE":307.8688,"ARG_OF_PERICENTER":167.2748,"MEAN_ANOMALY":192.8536,"EPHEMERIS_TYPE":0,"NORAD_CAT_ID":64565,"ELEMENT_SET_NO":999,"REV_AT_EPOCH":5776,"BSTAR":0.00010981498,"MEAN_MOTION_DOT":0.00001104,"MEAN_MOTION_DDOT":0},{"OBJECT_NAME":"LEMUR-2-SEJONG-2","OBJECT_ID":"2025-135BL","EPOCH":"2026-07-13T07:26:02.260896","CLASSIFICATION_TYPE":"U","MEAN_MOTION":14.96903163,"ECCENTRICITY":0.00038308,"INCLINATION":97.7705,"RA_OF_ASC_NODE":309.1574,"ARG_OF_PERICENTER":227.9084,"MEAN_ANOMALY":132.1812,"EPHEMERIS_TYPE":0,"NORAD_CAT_ID":64586,"ELEMENT_SET_NO":999,"REV_AT_EPOCH":5785,"BSTAR":0.00019078683,"MEAN_MOTION_DOT":0.00002131,"MEAN_MOTION_DDOT":0},{"OBJECT_NAME":"LEMUR-2-HUBBLE-5","OBJECT_ID":"2025-135BT","EPOCH":"2026-07-13T06:35:58.564896","CLASSIFICATION_TYPE":"U","MEAN_MOTION":14.942105,"ECCENTRICITY":0.00042232,"INCLINATION":97.7739,"RA_OF_ASC_NODE":308.5451,"ARG_OF_PERICENTER":243.2055,"MEAN_ANOMALY":116.8733,"EPHEMERIS_TYPE":0,"NORAD_CAT_ID":64840,"ELEMENT_SET_NO":999,"REV_AT_EPOCH":5780,"BSTAR":0.00010103138,"MEAN_MOTION_DOT":0.00001025,"MEAN_MOTION_DDOT":0},{"OBJECT_NAME":"LEMUR-2-KARENDARRELL","OBJECT_ID":"2025-135BU","EPOCH":"2026-07-13T04:42:02.870784","CLASSIFICATION_TYPE":"U","MEAN_MOTION":15.00482255,"ECCENTRICITY":0.00122474,"INCLINATION":97.7709,"RA_OF_ASC_NODE":310.3687,"ARG_OF_PERICENTER":110.7929,"MEAN_ANOMALY":249.4607,"EPHEMERIS_TYPE":0,"NORAD_CAT_ID":64841,"ELEMENT_SET_NO":999,"REV_AT_EPOCH":5791,"BSTAR":0.00035153913,"MEAN_MOTION_DOT":0.00004373,"MEAN_MOTION_DDOT":0},{"OBJECT_NAME":"LEMUR-2-LUCILLE-ROSE","OBJECT_ID":"2025-135BV","EPOCH":"2026-07-12T20:03:38.899296","CLASSIFICATION_TYPE":"U","MEAN_MOTION":15.00473532,"ECCENTRICITY":0.00146515,"INCLINATION":97.771,"RA_OF_ASC_NODE":310.0446,"ARG_OF_PERICENTER":196.2246,"MEAN_ANOMALY":163.851,"EPHEMERIS_TYPE":0,"NORAD_CAT_ID":65403,"ELEMENT_SET_NO":999,"REV_AT_EPOCH":5248,"BSTAR":0.00033730773,"MEAN_MOTION_DOT":0.00004195,"MEAN_MOTION_DDOT":0},{"OBJECT_NAME":"OTTER SDM","OBJECT_ID":"2025-276N","EPOCH":"2026-07-13T04:31:08.425344","CLASSIFICATION_TYPE":"U","MEAN_MOTION":15.20042584,"ECCENTRICITY":0.0004241,"INCLINATION":97.4209,"RA_OF_ASC_NODE":267.2358,"ARG_OF_PERICENTER":263.4653,"MEAN_ANOMALY":96.61,"EPHEMERIS_TYPE":0,"NORAD_CAT_ID":66678,"ELEMENT_SET_NO":999,"REV_AT_EPOCH":3436,"BSTAR":0.00016462,"MEAN_MOTION_DOT":0.00003482,"MEAN_MOTION_DDOT":0},{"OBJECT_NAME":"LEMUR-2-STAS-GORBUK","OBJECT_ID":"2025-276W","EPOCH":"2026-07-12T17:57:30.731904","CLASSIFICATION_TYPE":"U","MEAN_MOTION":15.19644338,"ECCENTRICITY":0.00034564,"INCLINATION":97.4243,"RA_OF_ASC_NODE":266.8551,"ARG_OF_PERICENTER":260.6907,"MEAN_ANOMALY":99.3937,"EPHEMERIS_TYPE":0,"NORAD_CAT_ID":66686,"ELEMENT_SET_NO":999,"REV_AT_EPOCH":3429,"BSTAR":0.00018039849,"MEAN_MOTION_DOT":0.00003778,"MEAN_MOTION_DDOT":0},{"OBJECT_NAME":"LEMUR-2-TEODOR","OBJECT_ID":"2025-276DG","EPOCH":"2026-07-12T18:28:26.063040","CLASSIFICATION_TYPE":"U","MEAN_MOTION":15.21322077,"ECCENTRICITY":0.00022806,"INCLINATION":97.4147,"RA_OF_ASC_NODE":267.1448,"ARG_OF_PERICENTER":89.7179,"MEAN_ANOMALY":270.4318,"EPHEMERIS_TYPE":0,"NORAD_CAT_ID":66768,"ELEMENT_SET_NO":999,"REV_AT_EPOCH":3433,"BSTAR":0.00016438721,"MEAN_MOTION_DOT":0.0000361,"MEAN_MOTION_DDOT":0},{"OBJECT_NAME":"LEMUR-2-LAILA","OBJECT_ID":"2025-276DQ","EPOCH":"2026-07-13T03:13:40.341216","CLASSIFICATION_TYPE":"U","MEAN_MOTION":15.21550887,"ECCENTRICITY":0.00029115,"INCLINATION":97.417,"RA_OF_ASC_NODE":267.6416,"ARG_OF_PERICENTER":97.3279,"MEAN_ANOMALY":262.8287,"EPHEMERIS_TYPE":0,"NORAD_CAT_ID":66776,"ELEMENT_SET_NO":999,"REV_AT_EPOCH":3439,"BSTAR":0.00016683159,"MEAN_MOTION_DOT":0.0000369,"MEAN_MOTION_DDOT":0},{"OBJECT_NAME":"LEMUR-2-CELIJO-SB-PK","OBJECT_ID":"2025-276DW","EPOCH":"2026-07-12T23:36:49.779072","CLASSIFICATION_TYPE":"U","MEAN_MOTION":15.0027319,"ECCENTRICITY":0.0007063,"INCLINATION":97.5201,"RA_OF_ASC_NODE":263.9101,"ARG_OF_PERICENTER":69.7393,"MEAN_ANOMALY":290.459,"EPHEMERIS_TYPE":0,"NORAD_CAT_ID":66781,"ELEMENT_SET_NO":999,"REV_AT_EPOCH":2649,"BSTAR":0.00028425417,"MEAN_MOTION_DOT":0.00003504,"MEAN_MOTION_DDOT":0},{"OBJECT_NAME":"LEMUR-2-FINNIAN","OBJECT_ID":"2025-276DX","EPOCH":"2026-07-12T18:06:41.046336","CLASSIFICATION_TYPE":"U","MEAN_MOTION":15.00601115,"ECCENTRICITY":0.00078857,"INCLINATION":97.5339,"RA_OF_ASC_NODE":263.9508,"ARG_OF_PERICENTER":9.8225,"MEAN_ANOMALY":350.3152,"EPHEMERIS_TYPE":0,"NORAD_CAT_ID":66782,"ELEMENT_SET_NO":999,"REV_AT_EPOCH":2383,"BSTAR":0.00014176978,"MEAN_MOTION_DOT":0.00001734,"MEAN_MOTION_DDOT":0},{"OBJECT_NAME":"LEMUR-2-STARLIGHT","OBJECT_ID":"2025-276DY","EPOCH":"2026-07-12T15:59:40.843680","CLASSIFICATION_TYPE":"U","MEAN_MOTION":14.99335039,"ECCENTRICITY":0.00148107,"INCLINATION":97.5235,"RA_OF_ASC_NODE":263.4338,"ARG_OF_PERICENTER":54.7591,"MEAN_ANOMALY":305.5017,"EPHEMERIS_TYPE":0,"NORAD_CAT_ID":66783,"ELEMENT_SET_NO":999,"REV_AT_EPOCH":3401,"BSTAR":0.00030465516,"MEAN_MOTION_DOT":0.00003675,"MEAN_MOTION_DDOT":0},{"OBJECT_NAME":"LEMUR-2-TARTIFLETTE","OBJECT_ID":"2025-276DZ","EPOCH":"2026-07-12T17:33:26.701920","CLASSIFICATION_TYPE":"U","MEAN_MOTION":14.99322354,"ECCENTRICITY":0.00138728,"INCLINATION":97.5235,"RA_OF_ASC_NODE":263.5049,"ARG_OF_PERICENTER":62.7426,"MEAN_ANOMALY":297.5209,"EPHEMERIS_TYPE":0,"NORAD_CAT_ID":66784,"ELEMENT_SET_NO":999,"REV_AT_EPOCH":3402,"BSTAR":0.00029192288,"MEAN_MOTION_DOT":0.00003516,"MEAN_MOTION_DDOT":0},{"OBJECT_NAME":"LEMUR-2-VUKASIN","OBJECT_ID":"2025-276EA","EPOCH":"2026-07-13T04:05:47.766336","CLASSIFICATION_TYPE":"U","MEAN_MOTION":15.00535741,"ECCENTRICITY":0.00034042,"INCLINATION":97.5238,"RA_OF_ASC_NODE":264.2842,"ARG_OF_PERICENTER":60.3374,"MEAN_ANOMALY":299.8189,"EPHEMERIS_TYPE":0,"NORAD_CAT_ID":66785,"ELEMENT_SET_NO":999,"REV_AT_EPOCH":3404,"BSTAR":0.00022475906,"MEAN_MOTION_DOT":0.00002777,"MEAN_MOTION_DDOT":0},{"OBJECT_NAME":"LEMUR-2-HOTSPUR-TOM","OBJECT_ID":"2025-276EB","EPOCH":"2026-07-12T19:01:15.763584","CLASSIFICATION_TYPE":"U","MEAN_MOTION":14.99227481,"ECCENTRICITY":0.00137831,"INCLINATION":97.5223,"RA_OF_ASC_NODE":263.5388,"ARG_OF_PERICENTER":53.6491,"MEAN_ANOMALY":306.6002,"EPHEMERIS_TYPE":0,"NORAD_CAT_ID":66786,"ELEMENT_SET_NO":999,"REV_AT_EPOCH":3396,"BSTAR":0.00028941245,"MEAN_MOTION_DOT":0.00003477,"MEAN_MOTION_DDOT":0}]}
